$$SOE
2461295.500000000, A.D. 2026-Sep-12 00:00:00.0000, 4.724304998217518E+08, -6.985712525044453E+07, 6.888193786020198E+07,
2461302.500000000, A.D. 2026-Sep-19 00:00:00.0000, 4.736139345998670E+08, -5.986480218049095E+07, 6.906315632558663E+07,
2461309.500000000, A.D. 2026-Sep-26 00:00:00.0000, 4.745925228794563E+08, -4.984661424298638E+07, 6.921449822098409E+07,
2461316.500000000, A.D. 2026-Oct-03 00:00:00.0000, 4.753656413951272E+08, -3.980687597713488E+07, 6.933586908984631E+07,
2461323.500000000, A.D. 2026-Oct-10 00:00:00.0000, 4.759327571426632E+08, -2.974992001135420E+07, 6.942718754964639E+07,
2461330.500000000, A.D. 2026-Oct-17 00:00:00.0000, 4.762934279125587E+08, -1.968009505261005E+07, 6.948838538428453E+07,
2461337.500000000, A.D. 2026-Oct-24 00:00:00.0000, 4.764473027676644E+08, -9.601763948196333E+06, 6.951940762154694E+07,
2461344.500000000, A.D. 2026-Oct-31 00:00:00.0000, 4.763941225642138E+08, 4.806981130992174E+05, 6.952021258159047E+07,
2461351.500000000, A.D. 2026-Nov-07 00:00:00.0000, 4.761337208557389E+08, 1.056290533318252E+07, 6.949077187193246E+07,
2461358.500000000, A.D. 2026-Nov-14 00:00:00.0000, 4.756660253801240E+08, 2.064046385608904E+07, 6.943107038328138E+07,
2461365.500000000, A.D. 2026-Nov-21 00:00:00.0000, 4.749910583178694E+08, 3.070897581977271E+07, 6.934110650862259E+07,
2461372.500000000, A.D. 2026-Nov-28 00:00:00.0000, 4.741089343247445E+08, 4.076404189833239E+07, 6.922089243212701E+07,
2461379.500000000, A.D. 2026-Dec-05 00:00:00.0000, 4.730198599575114E+08, 5.080126167539420E+07, 6.907045410221449E+07,
2461386.500000000, A.D. 2026-Dec-12 00:00:00.0000, 4.717241346550707E+08, 6.081623495811518E+07, 6.888983112740484E+07,
2461393.500000000, A.D. 2026-Dec-19 00:00:00.0000, 4.702221513863165E+08, 7.080456403749064E+07, 6.867907676852083E+07,
2461400.500000000, A.D. 2026-Dec-26 00:00:00.0000, 4.685143968215252E+08, 8.076185602586684E+07, 6.843825796946833E+07,
2461407.500000000, A.D. 2027-Jan-02 00:00:00.0000, 4.666014513021648E+08, 9.068372507942247E+07, 6.816745538574117E+07,
2461414.500000000, A.D. 2027-Jan-09 00:00:00.0000, 4.644839887247692E+08, 1.005657945243668E+08, 6.786676340157700E+07,
2461421.500000000, A.D. 2027-Jan-16 00:00:00.0000, 4.621627763725822E+08, 1.104036988942151E+08, 6.753629013323291E+07,
2461428.500000000, A.D. 2027-Jan-23 00:00:00.0000, 4.596386747391737E+08, 1.201930858370277E+08, 6.717615741092023E+07,
2461435.500000000, A.D. 2027-Jan-30 00:00:00.0000, 4.569126375300044E+08, 1.299296178431312E+08, 6.678650071823271E+07,
2461442.500000000, A.D. 2027-Feb-06 00:00:00.0000, 4.539857122645003E+08, 1.396089741311191E+08, 6.636746907758442E+07,
2461449.500000000, A.D. 2027-Feb-13 00:00:00.0000, 4.508590410149443E+08, 1.492268539098883E+08, 6.591922502291337E+07,
2461456.500000000, A.D. 2027-Feb-20 00:00:00.0000, 4.475338589161605E+08, 1.587789802254862E+08, 6.544194481176967E+07,
2461463.500000000, A.D. 2027-Feb-27 00:00:00.0000, 4.440114918428918E+08, 1.682611011781240E+08, 6.493581848658675E+07,
2461470.500000000, A.D. 2027-Mar-06 00:00:00.0000, 4.402933562725555E+08, 1.776689904290912E+08, 6.440104966502026E+07,
2461477.500000000, A.D. 2027-Mar-13 00:00:00.0000, 4.363809597313896E+08, 1.869984490450893E+08, 6.383785537299929E+07,
2461484.500000000, A.D. 2027-Mar-20 00:00:00.0000, 4.322759006939403E+08, 1.962453078441201E+08, 6.324646595567314E+07,
2461491.500000000, A.D. 2027-Mar-27 00:00:00.0000, 4.279798681379495E+08, 2.054054296925959E+08, 6.262712500280573E+07,
2461498.500000000, A.D. 2027-Apr-03 00:00:00.0000, 4.234946409576402E+08, 2.144747117043968E+08, 6.198008926604669E+07,
2461505.500000000, A.D. 2027-Apr-10 00:00:00.0000, 4.188220872967241E+08, 2.234490873633883E+08, 6.130562856431274E+07,
2461512.500000000, A.D. 2027-Apr-17 00:00:00.0000, 4.139641638233455E+08, 2.323245285536249E+08, 6.060402567410271E+07,
2461519.500000000, A.D. 2027-Apr-24 00:00:00.0000, 4.089229150265353E+08, 2.410970474337399E+08, 5.987557619250649E+07,
2461526.500000000, A.D. 2027-May-01 00:00:00.0000, 4.037004728345821E+08, 2.497626981819391E+08, 5.912058834786870E+07,
2461533.500000000, A.D. 2027-May-08 00:00:00.0000, 3.982990568633856E+08, 2.583175793578417E+08, 5.833938279104805E+07,
2461540.500000000, A.D. 2027-May-15 00:00:00.0000, 3.927209737969705E+08, 2.667578378322489E+08, 5.753229258219241E+07,
2461547.500000000, A.D. 2027-May-22 00:00:00.0000, 3.869686143361956E+08, 2.750796716930976E+08, 5.669966330509581E+07,
2461554.500000000, A.D. 2027-May-29 00:00:00.0000, 3.810444510746616E+08, 2.832793306586639E+08, 5.584185288209485E+07,
2461561.500000000, A.D. 2027-Jun-05 00:00:00.0000, 3.749510381879330E+08, 2.913531171263245E+08, 5.495923126407252E+07,
2461568.500000000, A.D. 2027-Jun-12 00:00:00.0000, 3.686910109277520E+08, 2.992973882854536E+08, 5.405218021456587E+07,
2461575.500000000, A.D. 2027-Jun-19 00:00:00.0000, 3.622670845894463E+08, 3.071085583570470E+08, 5.312109314173952E+07,
2461582.500000000, A.D. 2027-Jun-26 00:00:00.0000, 3.556820532311840E+08, 3.147831006969547E+08, 5.216637493123153E+07,
2461589.500000000, A.D. 2027-Jul-03 00:00:00.0000, 3.489387882767533E+08, 3.223175497701125E+08, 5.118844176874894E+07,
2461596.500000000, A.D. 2027-Jul-10 00:00:00.0000, 3.420402370392095E+08, 3.297085030043004E+08, 5.018772095043819E+07,
2461603.500000000, A.D. 2027-Jul-17 00:00:00.0000, 3.349894212033264E+08, 3.369526224844390E+08, 4.916465067540137E+07,
2461610.500000000, A.D. 2027-Jul-24 00:00:00.0000, 3.277894354255002E+08, 3.440466364240768E+08, 4.811967980169292E+07,
2461617.500000000, A.D. 2027-Jul-31 00:00:00.0000, 3.204434464650636E+08, 3.509873406484578E+08, 4.705326754789890E+07,
2461624.500000000, A.D. 2027-Aug-07 00:00:00.0000, 3.129546926483597E+08, 3.577716012383678E+08, 4.596588325293507E+07,
2461631.500000000, A.D. 2027-Aug-14 00:00:00.0000, 3.053264813640738E+08, 3.643963580780441E+08, 4.485800638415655E+07,
2461638.500000000, A.D. 2027-Aug-21 00:00:00.0000, 2.975621852077030E+08, 3.708586259426159E+08, 4.373012646251079E+07,
2461645.500000000, A.D. 2027-Aug-28 00:00:00.0000, 2.896652402090430E+08, 3.771554943283730E+08, 4.258274268880014E+07,
2461652.500000000, A.D. 2027-Sep-04 00:00:00.0000, 2.816391449630926E+08, 3.832841285256881E+08, 4.141636358359933E+07,
2461659.500000000, A.D. 2027-Sep-11 00:00:00.0000, 2.734874592692757E+08, 3.892417712712783E+08, 4.023150671452996E+07,
2461666.500000000, A.D. 2027-Sep-18 00:00:00.0000, 2.652138024129323E+08, 3.950257443286139E+08, 3.902869844549721E+07,
2461673.500000000, A.D. 2027-Sep-25 00:00:00.0000, 2.568218513191392E+08, 4.006334499180968E+08, 3.780847368052047E+07,
2461680.500000000, A.D. 2027-Oct-02 00:00:00.0000, 2.483153386552343E+08, 4.060623720239113E+08, 3.657137559748575E+07,
2461687.500000000, A.D. 2027-Oct-09 00:00:00.0000, 2.396980509059083E+08, 4.113100775724730E+08, 3.531795536936617E+07,
2461694.500000000, A.D. 2027-Oct-16 00:00:00.0000, 2.309738264855008E+08, 4.163742174271716E+08, 3.404877186265498E+07,
2461701.500000000, A.D. 2027-Oct-23 00:00:00.0000, 2.221465541490202E+08, 4.212525271935803E+08, 3.276439128880993E+07,
2461708.500000000, A.D. 2027-Oct-30 00:00:00.0000, 2.132201720788515E+08, 4.259428284455888E+08, 3.146538682436216E+07,
2461715.500000000, A.D. 2027-Nov-06 00:00:00.0000, 2.041986664863903E+08, 4.304430314994160E+08, 3.015233839853776E+07,
2461722.500000000, A.D. 2027-Nov-13 00:00:00.0000, 1.950860677438035E+08, 4.347511376564959E+08, 2.882583266073638E+07,
2461729.500000000, A.D. 2027-Nov-20 00:00:00.0000, 1.858864469481208E+08, 4.388652387297609E+08, 2.748646268358031E+07,
2461736.500000000, A.D. 2027-Nov-27 00:00:00.0000, 1.766039145384711E+08, 4.427835168186605E+08, 2.613482749577856E+07,
2461743.500000000, A.D. 2027-Dec-04 00:00:00.0000, 1.672426189451187E+08, 4.465042452447811E+08, 2.477153170507231E+07,
2461750.500000000, A.D. 2027-Dec-11 00:00:00.0000, 1.578067447204541E+08, 4.500257896823040E+08, 2.339718518314791E+07,
2461757.500000000, A.D. 2027-Dec-18 00:00:00.0000, 1.483005104276959E+08, 4.533466091434984E+08, 2.201240275992790E+07,
2461764.500000000, A.D. 2027-Dec-25 00:00:00.0000, 1.387281664403123E+08, 4.564652568170028E+08, 2.061780391353908E+07,
2461771.500000000, A.D. 2028-Jan-01 00:00:00.0000, 1.290939926948533E+08, 4.593803807737918E+08, 1.921401245382309E+07,
$$EOE